{"fetched_at":"2026-07-16T17:46:08.983Z","source":"https://celestrak.org/NORAD/elements/gp.php?GROUP=qianfan&FORMAT=JSON","constellation":"qianfan","records":[{"OBJECT_NAME":"QIANFAN-49","OBJECT_ID":"2024-232P","EPOCH":"2026-07-16T05:11:04.013952","CLASSIFICATION_TYPE":"U","MEAN_MOTION":13.51014167,"ECCENTRICITY":0.00122784,"INCLINATION":89.0073,"RA_OF_ASC_NODE":19.5877,"ARG_OF_PERICENTER":296.3187,"MEAN_ANOMALY":63.6703,"EPHEMERIS_TYPE":0,"NORAD_CAT_ID":62250,"ELEMENT_SET_NO":999,"REV_AT_EPOCH":9693,"BSTAR":0.000024879272,"MEAN_MOTION_DOT":2.8e-7,"MEAN_MOTION_DDOT":0},{"OBJECT_NAME":"QIANFAN-50","OBJECT_ID":"2024-232Q","EPOCH":"2026-07-16T05:46:45.925248","CLASSIFICATION_TYPE":"U","MEAN_MOTION":13.51010899,"ECCENTRICITY":0.00139521,"INCLINATION":89.0079,"RA_OF_ASC_NODE":19.6051,"ARG_OF_PERICENTER":297.2943,"MEAN_ANOMALY":62.6787,"EPHEMERIS_TYPE":0,"NORAD_CAT_ID":62251,"ELEMENT_SET_NO":999,"REV_AT_EPOCH":9696,"BSTAR":0.000026950633,"MEAN_MOTION_DOT":2.9e-7,"MEAN_MOTION_DDOT":0},{"OBJECT_NAME":"QIANFAN-51","OBJECT_ID":"2024-232R","EPOCH":"2026-07-16T05:23:08.117664","CLASSIFICATION_TYPE":"U","MEAN_MOTION":13.51022033,"ECCENTRICITY":0.00114904,"INCLINATION":89.0072,"RA_OF_ASC_NODE":19.5874,"ARG_OF_PERICENTER":302.7742,"MEAN_ANOMALY":57.2302,"EPHEMERIS_TYPE":0,"NORAD_CAT_ID":62252,"ELEMENT_SET_NO":999,"REV_AT_EPOCH":9695,"BSTAR":-0.000001670127,"MEAN_MOTION_DOT":1.1e-7,"MEAN_MOTION_DDOT":0},{"OBJECT_NAME":"QIANFAN-52","OBJECT_ID":"2024-232S","EPOCH":"2026-07-16T06:04:24.534336","CLASSIFICATION_TYPE":"U","MEAN_MOTION":13.51013892,"ECCENTRICITY":0.00133837,"INCLINATION":89.0069,"RA_OF_ASC_NODE":19.4497,"ARG_OF_PERICENTER":292.7351,"MEAN_ANOMALY":67.2385,"EPHEMERIS_TYPE":0,"NORAD_CAT_ID":62253,"ELEMENT_SET_NO":999,"REV_AT_EPOCH":9704,"BSTAR":0.00003968595,"MEAN_MOTION_DOT":3.7e-7,"MEAN_MOTION_DDOT":0},{"OBJECT_NAME":"QIANFAN-53","OBJECT_ID":"2024-232T","EPOCH":"2026-07-16T05:34:52.599936","CLASSIFICATION_TYPE":"U","MEAN_MOTION":13.51009824,"ECCENTRICITY":0.00122835,"INCLINATION":89.0076,"RA_OF_ASC_NODE":19.5726,"ARG_OF_PERICENTER":294.4172,"MEAN_ANOMALY":65.5698,"EPHEMERIS_TYPE":0,"NORAD_CAT_ID":62254,"ELEMENT_SET_NO":999,"REV_AT_EPOCH":9700,"BSTAR":-0.000001801728,"MEAN_MOTION_DOT":1.1e-7,"MEAN_MOTION_DDOT":0},{"OBJECT_NAME":"QIANFAN-54","OBJECT_ID":"2024-232U","EPOCH":"2026-07-16T06:34:03.360864","CLASSIFICATION_TYPE":"U","MEAN_MOTION":13.51013695,"ECCENTRICITY":0.00021982,"INCLINATION":89.0067,"RA_OF_ASC_NODE":19.2278,"ARG_OF_PERICENTER":31.131,"MEAN_ANOMALY":328.9971,"EPHEMERIS_TYPE":0,"NORAD_CAT_ID":62255,"ELEMENT_SET_NO":999,"REV_AT_EPOCH":12851,"BSTAR":0.00001731146,"MEAN_MOTION_DOT":2.3e-7,"MEAN_MOTION_DDOT":0},{"OBJECT_NAME":"QIANFAN-55","OBJECT_ID":"2025-016A","EPOCH":"2026-07-16T05:25:05.473056","CLASSIFICATION_TYPE":"U","MEAN_MOTION":13.51011179,"ECCENTRICITY":0.00193969,"INCLINATION":88.9715,"RA_OF_ASC_NODE":80.8654,"ARG_OF_PERICENTER":84.9541,"MEAN_ANOMALY":275.3823,"EPHEMERIS_TYPE":0,"NORAD_CAT_ID":62785,"ELEMENT_SET_NO":999,"REV_AT_EPOCH":7628,"BSTAR":0.00014413891,"MEAN_MOTION_DOT":0.00000105,"MEAN_MOTION_DDOT":0},{"OBJECT_NAME":"QIANFAN-56","OBJECT_ID":"2025-016B","EPOCH":"2026-07-16T05:48:50.324832","CLASSIFICATION_TYPE":"U","MEAN_MOTION":13.51009785,"ECCENTRICITY":0.00180247,"INCLINATION":88.9688,"RA_OF_ASC_NODE":80.6426,"ARG_OF_PERICENTER":86.9628,"MEAN_ANOMALY":273.3585,"EPHEMERIS_TYPE":0,"NORAD_CAT_ID":62786,"ELEMENT_SET_NO":999,"REV_AT_EPOCH":7633,"BSTAR":0.00012769004,"MEAN_MOTION_DOT":9.5e-7,"MEAN_MOTION_DDOT":0},{"OBJECT_NAME":"QIANFAN-57","OBJECT_ID":"2025-016C","EPOCH":"2026-07-16T04:49:29.416224","CLASSIFICATION_TYPE":"U","MEAN_MOTION":13.51009811,"ECCENTRICITY":0.0001307,"INCLINATION":88.9719,"RA_OF_ASC_NODE":80.8675,"ARG_OF_PERICENTER":81.7552,"MEAN_ANOMALY":278.3747,"EPHEMERIS_TYPE":0,"NORAD_CAT_ID":62787,"ELEMENT_SET_NO":999,"REV_AT_EPOCH":7629,"BSTAR":0.00012447513,"MEAN_MOTION_DOT":9.2e-7,"MEAN_MOTION_DDOT":0},{"OBJECT_NAME":"QIANFAN-58","OBJECT_ID":"2025-016D","EPOCH":"2026-07-16T05:54:29.673792","CLASSIFICATION_TYPE":"U","MEAN_MOTION":13.51014357,"ECCENTRICITY":0.00159602,"INCLINATION":88.9689,"RA_OF_ASC_NODE":80.6287,"ARG_OF_PERICENTER":80.1789,"MEAN_ANOMALY":280.1164,"EPHEMERIS_TYPE":0,"NORAD_CAT_ID":62788,"ELEMENT_SET_NO":999,"REV_AT_EPOCH":7634,"BSTAR":0.00012727071,"MEAN_MOTION_DOT":9.4e-7,"MEAN_MOTION_DDOT":0},{"OBJECT_NAME":"QIANFAN-59","OBJECT_ID":"2025-016E","EPOCH":"2026-07-16T06:30:05.166432","CLASSIFICATION_TYPE":"U","MEAN_MOTION":13.51018562,"ECCENTRICITY":0.00163242,"INCLINATION":88.9713,"RA_OF_ASC_NODE":80.7507,"ARG_OF_PERICENTER":83.4871,"MEAN_ANOMALY":276.8138,"EPHEMERIS_TYPE":0,"NORAD_CAT_ID":62789,"ELEMENT_SET_NO":999,"REV_AT_EPOCH":7634,"BSTAR":0.00012729124,"MEAN_MOTION_DOT":9.4e-7,"MEAN_MOTION_DDOT":0},{"OBJECT_NAME":"QIANFAN-60","OBJECT_ID":"2025-016F","EPOCH":"2026-07-16T05:31:04.305216","CLASSIFICATION_TYPE":"U","MEAN_MOTION":13.51021409,"ECCENTRICITY":0.00178748,"INCLINATION":88.9694,"RA_OF_ASC_NODE":80.6854,"ARG_OF_PERICENTER":80.4544,"MEAN_ANOMALY":279.8626,"EPHEMERIS_TYPE":0,"NORAD_CAT_ID":62790,"ELEMENT_SET_NO":999,"REV_AT_EPOCH":7632,"BSTAR":0.00013728866,"MEAN_MOTION_DOT":0.00000101,"MEAN_MOTION_DDOT":0},{"OBJECT_NAME":"QIANFAN-61","OBJECT_ID":"2025-016G","EPOCH":"2026-07-16T06:18:26.199936","CLASSIFICATION_TYPE":"U","MEAN_MOTION":13.51002004,"ECCENTRICITY":0.00168498,"INCLINATION":88.9761,"RA_OF_ASC_NODE":80.9909,"ARG_OF_PERICENTER":80.0104,"MEAN_ANOMALY":280.2948,"EPHEMERIS_TYPE":0,"NORAD_CAT_ID":62791,"ELEMENT_SET_NO":999,"REV_AT_EPOCH":7634,"BSTAR":0.00014846925,"MEAN_MOTION_DOT":0.00000108,"MEAN_MOTION_DDOT":0},{"OBJECT_NAME":"QIANFAN-62","OBJECT_ID":"2025-016H","EPOCH":"2026-07-16T01:04:08.618880","CLASSIFICATION_TYPE":"U","MEAN_MOTION":13.51023031,"ECCENTRICITY":0.00181912,"INCLINATION":88.9708,"RA_OF_ASC_NODE":80.7661,"ARG_OF_PERICENTER":80.7739,"MEAN_ANOMALY":279.5469,"EPHEMERIS_TYPE":0,"NORAD_CAT_ID":62792,"ELEMENT_SET_NO":999,"REV_AT_EPOCH":7630,"BSTAR":0.00009585322,"MEAN_MOTION_DOT":7.4e-7,"MEAN_MOTION_DDOT":0},{"OBJECT_NAME":"QIANFAN-63","OBJECT_ID":"2025-016J","EPOCH":"2026-07-16T05:13:07.042368","CLASSIFICATION_TYPE":"U","MEAN_MOTION":13.51017168,"ECCENTRICITY":0.00182249,"INCLINATION":88.9714,"RA_OF_ASC_NODE":80.7142,"ARG_OF_PERICENTER":85.0432,"MEAN_ANOMALY":275.2799,"EPHEMERIS_TYPE":0,"NORAD_CAT_ID":62793,"ELEMENT_SET_NO":999,"REV_AT_EPOCH":7636,"BSTAR":0.00012571724,"MEAN_MOTION_DOT":9.4e-7,"MEAN_MOTION_DDOT":0},{"OBJECT_NAME":"QIANFAN-64","OBJECT_ID":"2025-016K","EPOCH":"2026-07-16T06:12:26.830368","CLASSIFICATION_TYPE":"U","MEAN_MOTION":13.5101362,"ECCENTRICITY":0.00161789,"INCLINATION":88.9701,"RA_OF_ASC_NODE":80.6551,"ARG_OF_PERICENTER":78.6824,"MEAN_ANOMALY":281.6144,"EPHEMERIS_TYPE":0,"NORAD_CAT_ID":62794,"ELEMENT_SET_NO":999,"REV_AT_EPOCH":7636,"BSTAR":0.000127123,"MEAN_MOTION_DOT":9.4e-7,"MEAN_MOTION_DDOT":0}]}
