QIANFAN-49              
1 62250U 24232P   26197.21601868  .00000028  00000+0  24879-4 0  9998
2 62250  89.0073  19.5877 0012278 296.3187  63.6703 13.51014167 96938
QIANFAN-50              
1 62251U 24232Q   26197.24080932  .00000029  00000+0  26951-4 0  9999
2 62251  89.0079  19.6051 0013952 297.2943  62.6787 13.51010899 96962
QIANFAN-51              
1 62252U 24232R   26197.22439951  .00000011  00000+0 -16701-5 0  9992
2 62252  89.0072  19.5874 0011490 302.7742  57.2302 13.51022033 96957
QIANFAN-52              
1 62253U 24232S   26197.25306174  .00000037  00000+0  39686-4 0  9999
2 62253  89.0069  19.4497 0013383 292.7351  67.2385 13.51013892 97047
QIANFAN-53              
1 62254U 24232T   26197.23255324  .00000011  00000+0 -18017-5 0  9997
2 62254  89.0076  19.5726 0012283 294.4172  65.5698 13.51009824 97004
QIANFAN-54              
1 62255U 24232U   26197.27365001  .00000023  00000+0  17311-4 0  9993
2 62255  89.0067  19.2278 0002198  31.1310 328.9971 13.51013695128510
QIANFAN-55              
1 62785U 25016A   26197.22575779  .00000105  00000+0  14414-3 0  9993
2 62785  88.9715  80.8654 0019396  84.9541 275.3823 13.51011179 76280
QIANFAN-56              
1 62786U 25016B   26197.24224913  .00000095  00000+0  12769-3 0  9996
2 62786  88.9688  80.6426 0018024  86.9628 273.3585 13.51009785 76339
QIANFAN-57              
1 62787U 25016C   26197.20103491  .00000092  00000+0  12448-3 0  9991
2 62787  88.9719  80.8675 0001307  81.7552 278.3747 13.51009811 76298
QIANFAN-58              
1 62788U 25016D   26197.24617678  .00000094  00000+0  12727-3 0  9995
2 62788  88.9689  80.6287 0015960  80.1789 280.1164 13.51014357 76348
QIANFAN-59              
1 62789U 25016E   26197.27089313  .00000094  00000+0  12729-3 0  9990
2 62789  88.9713  80.7507 0016324  83.4871 276.8138 13.51018562 76341
QIANFAN-60              
1 62790U 25016F   26197.22991094  .00000101  00000+0  13729-3 0  9995
2 62790  88.9694  80.6854 0017874  80.4544 279.8626 13.51021409 76327
QIANFAN-61              
1 62791U 25016G   26197.26280324  .00000108  00000+0  14847-3 0  9996
2 62791  88.9761  80.9909 0016849  80.0104 280.2948 13.51002004 76341
QIANFAN-62              
1 62792U 25016H   26197.04454420  .00000074  00000+0  95853-4 0  9992
2 62792  88.9708  80.7661 0018191  80.7739 279.5469 13.51023031 76307
QIANFAN-63              
1 62793U 25016J   26197.21744262  .00000094  00000+0  12572-3 0  9996
2 62793  88.9714  80.7142 0018224  85.0432 275.2799 13.51017168 76363
QIANFAN-64              
1 62794U 25016K   26197.25864387  .00000094  00000+0  12712-3 0  9998
2 62794  88.9701  80.6551 0016178  78.6824 281.6144 13.51013620 76366
